{
  "type": "Feature",
  "properties": {},
  "geometry": {
    "type": "LineString",
    "coordinates": [
      [
        23.40306,
        42.70527
      ],
      [
        23.40357,
        42.70537
      ],
      [
        23.40384,
        42.70551
      ],
      [
        23.40537,
        42.70556
      ],
      [
        23.40641,
        42.70568
      ],
      [
        23.40729,
        42.70552
      ],
      [
        23.40764,
        42.70514
      ],
      [
        23.40781,
        42.70471
      ],
      [
        23.40755,
        42.70553
      ],
      [
        23.40631,
        42.70611
      ],
      [
        23.40581,
        42.70618
      ],
      [
        23.40384,
        42.70592
      ],
      [
        23.40078,
        42.70798
      ],
      [
        23.39928,
        42.70874
      ],
      [
        23.39867,
        42.70894
      ],
      [
        23.39869,
        42.70938
      ],
      [
        23.39889,
        42.70951
      ],
      [
        23.39919,
        42.70909
      ],
      [
        23.39904,
        42.70881
      ],
      [
        23.40102,
        42.70761
      ],
      [
        23.40155,
        42.7062
      ],
      [
        23.40105,
        42.70589
      ],
      [
        23.39502,
        42.70481
      ],
      [
        23.38953,
        42.70375
      ],
      [
        23.38808,
        42.70347
      ],
      [
        23.38677,
        42.70323
      ],
      [
        23.38272,
        42.7025
      ],
      [
        23.37849,
        42.70173
      ],
      [
        23.37768,
        42.70158
      ],
      [
        23.37442,
        42.70099
      ],
      [
        23.37288,
        42.70071
      ],
      [
        23.36685,
        42.69962
      ],
      [
        23.36631,
        42.69978
      ],
      [
        23.36612,
        42.701
      ],
      [
        23.36615,
        42.70152
      ],
      [
        23.36762,
        42.70154
      ]
    ]
  }
}