{
  "type": "Feature",
  "properties": {},
  "geometry": {
    "type": "LineString",
    "coordinates": [
      [
        23.20934,
        42.75078
      ],
      [
        23.21225,
        42.75165
      ],
      [
        23.21299,
        42.75133
      ],
      [
        23.21297,
        42.75076
      ],
      [
        23.21271,
        42.74942
      ],
      [
        23.21248,
        42.7493
      ],
      [
        23.21224,
        42.74924
      ],
      [
        23.21217,
        42.74906
      ],
      [
        23.21163,
        42.74888
      ],
      [
        23.21033,
        42.74846
      ],
      [
        23.20996,
        42.74819
      ],
      [
        23.20926,
        42.74779
      ],
      [
        23.20782,
        42.74744
      ],
      [
        23.20762,
        42.74749
      ],
      [
        23.20745,
        42.74744
      ],
      [
        23.20739,
        42.74723
      ],
      [
        23.20763,
        42.74711
      ],
      [
        23.20816,
        42.74627
      ],
      [
        23.20835,
        42.7458
      ],
      [
        23.20836,
        42.7454
      ],
      [
        23.20855,
        42.74504
      ],
      [
        23.20845,
        42.74483
      ],
      [
        23.20859,
        42.74467
      ],
      [
        23.20865,
        42.74449
      ],
      [
        23.2084,
        42.74409
      ],
      [
        23.20754,
        42.74296
      ],
      [
        23.20657,
        42.74186
      ],
      [
        23.20631,
        42.74175
      ],
      [
        23.20629,
        42.74153
      ],
      [
        23.20555,
        42.74047
      ],
      [
        23.20453,
        42.7394
      ],
      [
        23.20422,
        42.73932
      ],
      [
        23.20414,
        42.73909
      ],
      [
        23.20424,
        42.73896
      ],
      [
        23.20254,
        42.73698
      ],
      [
        23.20155,
        42.73588
      ],
      [
        23.20137,
        42.73583
      ],
      [
        23.20117,
        42.73577
      ],
      [
        23.20105,
        42.73565
      ],
      [
        23.20104,
        42.73549
      ],
      [
        23.2012,
        42.73534
      ],
      [
        23.20152,
        42.73531
      ],
      [
        23.20174,
        42.73548
      ],
      [
        23.20173,
        42.73566
      ],
      [
        23.20175,
        42.73589
      ]
    ]
  }
}