{
  "type": "Feature",
  "properties": {},
  "geometry": {
    "type": "LineString",
    "coordinates": [
      [
        23.45154,
        42.66318
      ],
      [
        23.45193,
        42.66258
      ],
      [
        23.45448,
        42.66339
      ],
      [
        23.45392,
        42.66449
      ],
      [
        23.45393,
        42.66482
      ],
      [
        23.45312,
        42.66495
      ],
      [
        23.45147,
        42.66551
      ],
      [
        23.45071,
        42.66584
      ],
      [
        23.44895,
        42.66701
      ],
      [
        23.44829,
        42.66739
      ],
      [
        23.44711,
        42.66799
      ],
      [
        23.44114,
        42.67114
      ],
      [
        23.43802,
        42.6728
      ],
      [
        23.43558,
        42.67408
      ],
      [
        23.43443,
        42.67299
      ],
      [
        23.43376,
        42.6724
      ],
      [
        23.43202,
        42.6724
      ],
      [
        23.43165,
        42.67245
      ],
      [
        23.42997,
        42.67293
      ],
      [
        23.42968,
        42.673
      ],
      [
        23.42679,
        42.67382
      ],
      [
        23.42612,
        42.67281
      ],
      [
        23.42569,
        42.67216
      ],
      [
        23.42535,
        42.67153
      ],
      [
        23.4249,
        42.67107
      ],
      [
        23.42365,
        42.66996
      ],
      [
        23.42334,
        42.66937
      ],
      [
        23.42273,
        42.66818
      ],
      [
        23.42334,
        42.6677
      ],
      [
        23.42342,
        42.66682
      ],
      [
        23.42353,
        42.66649
      ],
      [
        23.42304,
        42.66543
      ],
      [
        23.42243,
        42.6656
      ],
      [
        23.4219,
        42.66527
      ],
      [
        23.42016,
        42.66511
      ],
      [
        23.41888,
        42.66516
      ],
      [
        23.41616,
        42.6658
      ],
      [
        23.41526,
        42.66627
      ],
      [
        23.41474,
        42.66692
      ],
      [
        23.41207,
        42.66883
      ],
      [
        23.4068,
        42.67234
      ],
      [
        23.4059,
        42.67298
      ],
      [
        23.40439,
        42.674
      ],
      [
        23.40252,
        42.67526
      ],
      [
        23.40181,
        42.67573
      ],
      [
        23.40011,
        42.67678
      ],
      [
        23.3989,
        42.67746
      ],
      [
        23.3989,
        42.67755
      ],
      [
        23.39947,
        42.67805
      ],
      [
        23.40004,
        42.67937
      ],
      [
        23.40054,
        42.68064
      ],
      [
        23.40082,
        42.68131
      ],
      [
        23.40176,
        42.68367
      ],
      [
        23.40098,
        42.68461
      ],
      [
        23.40073,
        42.68506
      ],
      [
        23.40117,
        42.68616
      ],
      [
        23.40192,
        42.68808
      ],
      [
        23.40209,
        42.6882
      ],
      [
        23.40259,
        42.68812
      ],
      [
        23.40327,
        42.688
      ],
      [
        23.40332,
        42.68798
      ],
      [
        23.40379,
        42.68786
      ],
      [
        23.40508,
        42.68763
      ],
      [
        23.40513,
        42.68768
      ],
      [
        23.40511,
        42.68872
      ]
    ]
  }
}